NORAD_CAT_ID,OBJECT_NAME,OBJECT_TYPE,EPOCH,MEAN_MOTION,ECCENTRICITY,INCLINATION,RA_OF_ASC_NODE,ARG_OF_PERICENTER,MEAN_ANOMALY,BSTAR,MEAN_MOTION_DOT,MEAN_MOTION_DDOT,TLE_LINE0,TLE_LINE1,TLE_LINE2,SEMIMAJOR_AXIS,PERIOD,APOGEE,PERIGEE,DECAYED
53548.0,STARLINK-4513,PAYLOAD,2022-08-24 14:00:01,15.89924556,0.003942,53.2174,131.3982,56.1001,42.2937,-0.0039368,-0.01288394,0.00047532,0 STARLINK-4513,1 53548U 22101X   22236.58334491 -.01288394  47532-3 -39368-2 0  9995,2 53548  53.2174 131.3982 0039420  56.1001  42.2937 15.89924556   772,6680.630999999999,90.57,328.831,276.161,0.0
53548.0,STARLINK-4513,PAYLOAD,2022-08-25 06:00:02,15.88224492,0.0031518,53.2171,128.0229,57.1904,257.2596,-0.0046581,-0.01361123,0.00051707,0 STARLINK-4513,1 53548U 22101X   22237.25002315 -.01361123  51707-3 -46581-2 0  9993,2 53548  53.2171 128.0229 0031518  57.1904 257.2596 15.88224492   870,6685.398,90.667,328.334,286.192,0.0
53548.0,STARLINK-4513,PAYLOAD,2022-08-25 12:00:00,15.87576466,0.0029893,53.2175,126.7572,57.9099,246.3998,-0.0048597,-0.01368273,0.00051893,0 STARLINK-4513,1 53548U 22101X   22237.50001157 -.01368273  51893-3 -48597-2 0  9992,2 53548  53.2175 126.7572 0029893  57.9099 246.3998 15.87576466   916,6687.217,90.704,329.07199999999995,289.092,0.0
53548.0,STARLINK-4513,PAYLOAD,2022-08-25 14:00:01,15.87324737,0.0029140999999999,53.2174,126.3354,57.5097,3.3246,-0.0046748,-0.01297986,0.00047029,0 STARLINK-4513,1 53548U 22101X   22237.58334491 -.01297986  47029-3 -46748-2 0  9994,2 53548  53.2174 126.3354 0029141  57.5097   3.3246 15.87324737  1302,6687.924,90.719,329.278,290.3,0.0
53548.0,STARLINK-4513,PAYLOAD,2022-08-25 18:00:00,15.86913428,0.0026374,53.2175,125.4942,57.7387,235.9156,-0.0049913999999999,-0.01348293,0.00050215,0 STARLINK-4513,1 53548U 22101X   22237.75001157 -.01348293  50215-3 -49914-2 0  9990,2 53548  53.2175 125.4942 0026374  57.7387 235.9156 15.86913428   958,6689.079000000002,90.742,328.586,293.303,0.0
53548.0,STARLINK-4513,PAYLOAD,2022-08-25 22:00:00,15.86471958,0.0024831,53.2176,124.6538,56.7591,109.4631,-0.005042,-0.01328276,0.00048668,0 STARLINK-4513,1 53548U 22101X   22237.91667824 -.01328276  48668-3 -50420-2 0  9999,2 53548  53.2176 124.6538 0024831  56.7591 109.4631 15.86471958  1303,6690.32,90.767,328.798,295.573,0.0
53548.0,STARLINK-4513,PAYLOAD,2022-08-26 14:00:01,15.84733671,0.0018498,53.2172,121.2919,56.8885,317.062,-0.0055395,-0.01172434,0.0,0 STARLINK-4513,1 53548U 22101X   22238.58335648 -.01172434  00000-0 -55395-2 0  9993,2 53548  53.2172 121.2919 0018498  56.8885 317.0620 15.84733671  1085,6695.212,90.867,329.462,304.692,0.0
53548.0,STARLINK-4513,PAYLOAD,2022-08-26 22:00:00,15.83857789,0.0015452999999999,53.2172,119.617,56.1962,59.9545,-0.0057166,-0.01155208,0.0,0 STARLINK-4513,1 53548U 22101X   22238.91667824 -.01155208  00000-0 -57166-2 0  9992,2 53548  53.2172 119.6170 0015453  56.1962  59.9545 15.83857789  1301,6697.68,90.917,329.895,309.195,0.0
53548.0,STARLINK-4513,PAYLOAD,2022-08-27 14:00:01,15.82148023,0.0009271,53.2175,116.2678,53.2197,264.3252,-0.006506,-0.01218012,0.0,0 STARLINK-4513,1 53548U 22101X   22239.58334491 -.01218012  00000-0 -65060-2 0  9992,2 53548  53.2175 116.2678 0009271  53.2197 264.3252 15.82148023  1309,6702.504,91.016,330.583,318.155,0.0
53548.0,STARLINK-4513,PAYLOAD,2022-08-27 20:00:01,15.81500114,0.000662,53.2176,115.0164,46.6921,255.3008,-0.0067462,-0.01221282,0.0,0 STARLINK-4513,1 53548U 22101X   22239.83334491 -.01221282  00000-0 -67462-2 0  9991,2 53548  53.2176 115.0164 0006620  46.6921 255.3008 15.81500114  1281,6704.335,91.053,330.6380000000001,321.761,0.0
53548.0,STARLINK-4513,PAYLOAD,2022-08-27 22:00:00,15.81258071,0.0006007,53.2176,114.5995,41.8365,14.8506,-0.0065540999999999,-0.01177694,0.0,0 STARLINK-4513,1 53548U 22101X   22239.91667824 -.01177694  00000-0 -65541-2 0  9992,2 53548  53.2176 114.5995 0006007  41.8365  14.8506 15.81258071  1301,6705.019,91.067,330.912,322.856,0.0
53548.0,STARLINK-4513,PAYLOAD,2022-08-28 14:00:01,15.79536522,0.0002957,53.2172,111.263,11.5506,240.276,-0.0072655,-0.01199857,0.0,0 STARLINK-4513,1 53548U 22101X   22240.58334491 -.01199857  00000-0 -72655-2 0  9997,2 53548  53.2172 111.2630 0002957  11.5506 240.2760 15.79536522  1302,6709.89,91.166,333.7390000000001,329.771,0.0
53548.0,STARLINK-4513,PAYLOAD,2022-08-28 20:00:01,15.78880652,0.0002972,53.2174,110.0165,9.8492,224.0816,-0.0074328,-0.01192089,0.0,0 STARLINK-4513,1 53548U 22101X   22240.83334491 -.01192089  00000-0 -74328-2 0  9994,2 53548  53.2174 110.0165 0002972   9.8492 224.0816 15.78880652  1447,6711.748000000001,91.204,335.608,331.61800000000005,0.0
53548.0,STARLINK-4513,PAYLOAD,2022-08-28 22:00:00,15.78668234,0.000304,53.2173,109.6011,6.9083,340.9241,-0.0075517,-0.0119869,0.0,0 STARLINK-4513,1 53548U 22101X   22240.91667824 -.01198690  00000-0 -75517-2 0  9997,2 53548  53.2173 109.6011 0003040   6.9083 340.9241 15.78668234  1306,6712.35,91.216,336.256,332.1740000000001,0.0
53548.0,STARLINK-4513,PAYLOAD,2022-08-29 12:00:00,15.77153081,0.0003399999999999,53.2175,106.6927,338.6977,84.6375,-0.0081341,-0.01204984,0.0,0 STARLINK-4513,1 53548U 22101X   22241.50001157 -.01204984  00000-0 -81341-2 0  9990,2 53548  53.2175 106.6927 0003400 338.6977  84.6375 15.77153081  1553,6716.648,91.304,340.797,336.23,0.0
53548.0,STARLINK-4513,PAYLOAD,2022-08-29 14:00:01,15.76932333,0.0003364,53.2175,106.2775,351.6702,185.0485,-0.008162,-0.01198039,0.0,0 STARLINK-4513,1 53548U 22101X   22241.58334491 -.01198039  00000-0 -81620-2 0  9991,2 53548  53.2175 106.2775 0003364 351.6702 185.0485 15.76932333  1305,6717.275,91.317,341.4,336.88,0.0
53548.0,STARLINK-4513,PAYLOAD,2022-08-29 22:00:00,15.76050278,0.000423,53.2175,104.6221,322.9328,306.6674,-0.0082991,-0.01174634,0.0,0 STARLINK-4513,1 53548U 22101X   22241.91667824 -.01174634  00000-0 -82991-2 0  9994,2 53548  53.2175 104.6221 0004230 322.9328 306.6674 15.76050278  1301,6719.781,91.368,344.48900000000015,338.8040000000001,0.0
53548.0,STARLINK-4513,PAYLOAD,2022-08-30 06:00:00,15.75193048,9.06e-05,53.2172,102.9659,29.6393,331.7931,-0.0087648,-0.01190202,0.0,0 STARLINK-4513,1 53548U 22101X   22242.25001157 -.01190202  00000-0 -87648-2 0  9996,2 53548  53.2172 102.9659 0000906  29.6393 331.7931 15.75193048  1669,6722.219,91.417,344.6930000000001,343.475,0.0
53548.0,STARLINK-4513,PAYLOAD,2022-08-30 14:00:01,15.74288599,0.0001151,53.2168,101.3118,44.0946,48.1192,-0.0079486,-0.01052644,0.0,0 STARLINK-4513,1 53548U 22101X   22242.58334491 -.01052644  00000-0 -79486-2 0  9990,2 53548  53.2168 101.3118 0001151  44.0946  48.1192 15.74288599  1309,6724.793000000002,91.47,347.432,345.884,0.0
53548.0,STARLINK-4513,PAYLOAD,2022-08-30 20:00:01,15.73556424,0.0001286,53.2174,100.0743,45.7849,23.8597,-0.0034798,-0.00469827,0.0,0 STARLINK-4513,1 53548U 22101X   22242.83334491 -.00469827  00000-0 -34798-2 0  9999,2 53548  53.2174 100.0743 0001286  45.7849  23.8597 15.73556424  1768,6726.879,91.512,349.6090000000001,347.879,0.0
53548.0,STARLINK-4513,PAYLOAD,2022-08-30 22:00:00,15.73405292,0.0001217,53.2172,99.6632,60.2926,121.6754,-0.0019812,-0.00272244,0.0,0 STARLINK-4513,1 53548U 22101X   22242.91667824 -.00272244  00000-0 -19812-2 0  9992,2 53548  53.2172  99.6632 0001217  60.2926 121.6754 15.73405292  1306,6727.31,91.521,349.994,348.356,0.0
53548.0,STARLINK-4513,PAYLOAD,2022-08-31 12:00:00,15.73218732,0.0001132,53.216,96.7777,66.1536,181.6243,0.00023862,0.00033027,0.0,0 STARLINK-4513,1 53548U 22101X   22243.50001157  .00033027  00000-0  23862-3 0  9992,2 53548  53.2160  96.7777 0001132  66.1536 181.6243 15.73218732  1860,6727.842,91.532,350.468,348.945,0.0
53548.0,STARLINK-4513,PAYLOAD,2022-08-31 14:00:01,15.73227309,0.0001176,53.2162,96.3654,68.1172,291.8998,0.00014011,0.00019111,0.0,0 STARLINK-4513,1 53548U 22101X   22243.58334491  .00019111  00000-0  14011-3 0  9994,2 53548  53.2162  96.3654 0001176  68.1172 291.8998 15.73227309  1308,6727.816999999999,91.532,350.474,348.891,0.0
53548.0,STARLINK-4513,PAYLOAD,2022-08-31 20:00:01,15.73260104,0.0001219,53.2159,95.1298,59.1554,277.5906,-0.00076306,-0.00106635,0.0,0 STARLINK-4513,1 53548U 22101X   22243.83334491 -.00106635  00000-0 -76306-3 0  9997,2 53548  53.2159  95.1298 0001219  59.1554 277.5906 15.73260104  1914,6727.724,91.53,350.409,348.769,0.0
53548.0,STARLINK-4513,PAYLOAD,2022-08-31 22:00:00,15.73229616,0.0001257,53.2159,94.7179,56.5793,32.4176,-0.00054868,-0.00077019,0.0,0 STARLINK-4513,1 53548U 22101X   22243.91667824 -.00077019  00000-0 -54868-3 0  9997,2 53548  53.2159  94.7179 0001257  56.5793  32.4176 15.73229616  1308,6727.811,91.531,350.521,348.83,0.0
53548.0,STARLINK-4513,PAYLOAD,2022-09-01 12:00:00,15.73133825,0.0001155999999999,53.2156,91.829,70.2297,84.3584,0.00052921,0.00074097,0.0,0 STARLINK-4513,1 53548U 22101X   22244.50001157  .00074097  00000-0  52921-3 0  9993,2 53548  53.2156  91.8290 0001156  70.2297  84.3584 15.73133825  2022,6728.084,91.537,350.727,349.171,0.0
53548.0,STARLINK-4513,PAYLOAD,2022-09-01 14:00:01,15.73160791,0.0001171999999999,53.216,91.4167,70.7193,196.1497,0.00036866,0.00051349,0.0,0 STARLINK-4513,1 53548U 22101X   22244.58335648  .00051349  00000-0  36866-3 0  9991,2 53548  53.2160  91.4167 0001172  70.7193 196.1497 15.73160791  1301,6728.007,91.535,350.66,349.083,0.0
53548.0,STARLINK-4513,PAYLOAD,2022-09-01 22:00:00,15.7318057,0.0001311,53.2162,89.7694,58.9783,296.7299,0.00029652,0.00041164,0.0,0 STARLINK-4513,1 53548U 22101X   22244.91667824  .00041164  00000-0  29652-3 0  9991,2 53548  53.2162  89.7694 0001311  58.9783 296.7299 15.73180570  1300,6727.951,91.534,350.6980000000001,348.934,0.0
53548.0,STARLINK-4513,PAYLOAD,2022-09-02 04:00:00,15.73226902,0.0001259,53.2161,88.5318,55.627,276.7709,4.6877e-05,5.971e-05,0.0,0 STARLINK-4513,1 53548U 22101X   22245.16667824  .00005971  00000-0  46877-4 0  9994,2 53548  53.2161  88.5318 0001259  55.6270 276.7709 15.73226902  2120,6727.818,91.532,350.531,348.836,0.0
